[{"OBJECT_NAME":"STARLINK-31950","OBJECT_ID":"2024-098F","EPOCH":"2026-03-08T13:38:36.901824","MEAN_MOTION":15.27770245,"ECCENTRICITY":0.00018404,"INCLINATION":43.0002,"RA_OF_ASC_NODE":284.4192,"ARG_OF_PERICENTER":57.7343,"MEAN_ANOMALY":302.3687,"EPHEMERIS_TYPE":0,"CLASSIFICATION_TYPE":"U","NORAD_CAT_ID":59863,"ELEMENT_SET_NO":999,"REV_AT_EPOCH":10167,"BSTAR":-0.0013814305,"MEAN_MOTION_DOT":-0.00038303,"MEAN_MOTION_DDOT":0},{"OBJECT_NAME":"SCS-01 G","OBJECT_ID":"2025-100G","EPOCH":"2026-03-09T22:06:35.300160","MEAN_MOTION":15.25626619,"ECCENTRICITY":0.00115239,"INCLINATION":97.3761,"RA_OF_ASC_NODE":145.2582,"ARG_OF_PERICENTER":298.6971,"MEAN_ANOMALY":61.3108,"EPHEMERIS_TYPE":0,"CLASSIFICATION_TYPE":"U","NORAD_CAT_ID":63988,"ELEMENT_SET_NO":999,"REV_AT_EPOCH":4562,"BSTAR":0.00025501168,"MEAN_MOTION_DOT":6.423e-5,"MEAN_MOTION_DDOT":0}]
